[{"OBJECT_NAME":"STARLINK-3602","OBJECT_ID":"2022-017Z","EPOCH":"2026-03-09T22:01:53.824512","MEAN_MOTION":15.08872509,"ECCENTRICITY":0.00022315,"INCLINATION":53.2178,"RA_OF_ASC_NODE":348.0946,"ARG_OF_PERICENTER":86.7575,"MEAN_ANOMALY":273.3672,"EPHEMERIS_TYPE":0,"CLASSIFICATION_TYPE":"U","NORAD_CAT_ID":51791,"ELEMENT_SET_NO":999,"REV_AT_EPOCH":22395,"BSTAR":-0.0011195022,"MEAN_MOTION_DOT":-0.00018077,"MEAN_MOTION_DDOT":0},{"OBJECT_NAME":"OBJECT J","OBJECT_ID":"2017-042J","EPOCH":"2026-03-09T23:17:19.167936","MEAN_MOTION":15.08203331,"ECCENTRICITY":0.00078186,"INCLINATION":97.4246,"RA_OF_ASC_NODE":235.0467,"ARG_OF_PERICENTER":81.5059,"MEAN_ANOMALY":278.7055,"EPHEMERIS_TYPE":0,"CLASSIFICATION_TYPE":"U","NORAD_CAT_ID":42833,"ELEMENT_SET_NO":999,"REV_AT_EPOCH":47205,"BSTAR":0.00039182004,"MEAN_MOTION_DOT":6.006e-5,"MEAN_MOTION_DDOT":0}]
